NORAD_CAT_ID,OBJECT_NAME,OBJECT_TYPE,EPOCH,MEAN_MOTION,ECCENTRICITY,INCLINATION,RA_OF_ASC_NODE,ARG_OF_PERICENTER,MEAN_ANOMALY,BSTAR,MEAN_MOTION_DOT,MEAN_MOTION_DDOT,TLE_LINE0,TLE_LINE1,TLE_LINE2,SEMIMAJOR_AXIS,PERIOD,APOGEE,PERIGEE,DECAYED
55434.0,STARLINK-5621,PAYLOAD,2024-02-06 22:16:48,14.9833415,0.0002834,69.9988,225.1477,268.6707,91.4127,3.8855e-05,3.71e-06,0.0,0 STARLINK-5621,1 55434U 23014AV  24037.92834076  .00000371  00000-0  38855-4 0  9990,2 55434  69.9988 225.1477 0002834 268.6707  91.4127 14.98334150 56961,6950.18,96.107,574.015,570.075,0.0
55434.0,STARLINK-5621,PAYLOAD,2024-02-07 14:18:09,14.98327171,0.0002809,69.999,223.465,269.3447,90.739,2.7012e-05,2.29e-06,0.0,0 STARLINK-5621,1 55434U 23014AV  24038.59594579  .00000229  00000-0  27012-4 0  9990,2 55434  69.9990 223.4650 0002809 269.3447  90.7390 14.98327171 57060,6950.202,96.107,574.019,570.114,0.0
55434.0,STARLINK-5621,PAYLOAD,2024-02-07 19:06:33,14.98326923,0.000278,69.9992,222.96,267.5919,92.4922,2.0454e-05,1.51e-06,0.0,0 STARLINK-5621,1 55434U 23014AV  24038.79622637  .00000151  00000-0  20454-4 0  9996,2 55434  69.9992 222.9600 0002780 267.5919  92.4922 14.98326923 56156,6950.202,96.107,574.0,570.135,0.0
55434.0,STARLINK-5621,PAYLOAD,2024-02-07 22:18:50,14.98326148,0.0002827,69.9992,222.6236,267.858,92.2255,4.8911e-06,-3.5e-07,0.0,0 STARLINK-5621,1 55434U 23014AV  24038.92974750 -.00000035  00000-0  48911-5 0  9998,2 55434  69.9992 222.6236 0002827 267.8580  92.2255 14.98326148 57110,6950.205,96.107,574.035,570.105,0.0
55434.0,STARLINK-5621,PAYLOAD,2024-02-08 14:20:10,14.98334467,0.0002912,69.9991,220.9397,270.6848,89.3977,2.7337e-05,2.33e-06,0.0,0 STARLINK-5621,1 55434U 23014AV  24039.59734180  .00000233  00000-0  27337-4 0  9990,2 55434  69.9991 220.9397 0002912 270.6848  89.3977 14.98334467 57214,6950.179,96.107,574.068,570.02,0.0
55434.0,STARLINK-5621,PAYLOAD,2024-02-08 19:08:34,14.98334007,0.0002907,69.9994,220.4348,271.0475,89.0351,2.5092e-05,2.06e-06,0.0,0 STARLINK-5621,1 55434U 23014AV  24039.79762172  .00000206  00000-0  25092-4 0  9990,2 55434  69.9994 220.4348 0002907 271.0475  89.0351 14.98334007 56305,6950.18,96.107,574.066,570.025,0.0
55434.0,STARLINK-5621,PAYLOAD,2024-02-08 22:20:50,14.98335282,0.0002908,69.9994,220.0981,271.6103,88.4723,3.9264e-05,3.76e-06,0.0,0 STARLINK-5621,1 55434U 23014AV  24039.93114019  .00000376  00000-0  39264-4 0  9991,2 55434  69.9994 220.0981 0002908 271.6103  88.4723 14.98335282 57267,6950.177,96.107,574.063,570.02,0.0
55434.0,STARLINK-5621,PAYLOAD,2024-02-09 14:22:11,14.98331444,0.0002942,69.9996,218.4149,271.4498,88.6324,7.7817e-05,8.36e-06,0.0,0 STARLINK-5621,1 55434U 23014AV  24040.59874037  .00000836  00000-0  77817-4 0  9995,2 55434  69.9996 218.4149 0002942 271.4498  88.6324 14.98331444 57365,6950.188,96.107,574.098,570.009,0.0
55434.0,STARLINK-5621,PAYLOAD,2024-02-09 19:10:35,14.98332151,0.0002932,69.9997,217.91,271.5725,88.5098,8.2513e-05,8.92e-06,0.0,0 STARLINK-5621,1 55434U 23014AV  24040.79901965  .00000892  00000-0  82513-4 0  9999,2 55434  69.9997 217.9100 0002932 271.5725  88.5098 14.98332151 56452,6950.186,96.107,574.089,570.013,0.0
55434.0,STARLINK-5621,PAYLOAD,2024-02-10 14:24:12,14.98329998,0.0002798,70.0002,215.8907,266.9416,93.1423,-1.729e-05,-2.99e-06,0.0,0 STARLINK-5621,1 55434U 23014AV  24041.60014323 -.00000299  00000-0 -17290-4 0  9996,2 55434  70.0002 215.8907 0002798 266.9416  93.1423 14.98329998 57516,6950.193,96.107,574.003,570.113,0.0
55434.0,STARLINK-5621,PAYLOAD,2024-02-10 19:12:36,14.98328559,0.0002836,70.0003,215.3858,267.4949,92.5886,-3.5645e-05,-5.18e-06,0.0,0 STARLINK-5621,1 55434U 23014AV  24041.80042462 -.00000518  00000-0 -35645-4 0  9991,2 55434  70.0003 215.3858 0002836 267.4949  92.5886 14.98328559 56604,6950.197,96.107,574.033,570.091,0.0
55434.0,STARLINK-5621,PAYLOAD,2024-02-10 20:48:44,14.98328461,0.0002846,70.0003,215.2175,268.1884,91.8949,-3.737e-05,-5.39e-06,0.0,0 STARLINK-5621,1 55434U 23014AV  24041.86718478 -.00000539  00000-0 -37370-4 0  9994,2 55434  70.0003 215.2175 0002846 268.1884  91.8949 14.98328461 57551,6950.198,96.107,574.041,570.085,0.0
55434.0,STARLINK-5621,PAYLOAD,2024-02-11 14:26:12,14.98334086,0.0002929,70.0002,213.3662,265.5476,94.5348,2.5169e-05,2.07e-06,0.0,0 STARLINK-5621,1 55434U 23014AV  24042.60153846  .00000207  00000-0  25169-4 0  9992,2 55434  70.0002 213.3662 0002929 265.5476  94.5348 14.98334086 57665,6950.18,96.107,574.081,570.01,0.0
55434.0,STARLINK-5621,PAYLOAD,2024-02-11 19:14:37,14.98329742,0.0003092,69.9995,212.8602,268.058,92.0225,-1.3499e-05,-2.54e-06,0.0,0 STARLINK-5621,1 55434U 23014AV  24042.80182213 -.00000254  00000-0 -13499-4 0  9991,2 55434  69.9995 212.8602 0003092 268.0580  92.0225 14.98329742 56756,6950.194,96.107,574.208,569.91,0.0
55434.0,STARLINK-5621,PAYLOAD,2024-02-11 20:50:45,14.98329022,0.0003772,69.9975,212.6881,283.9037,76.1702,-8.7621e-05,-1.138e-05,0.0,0 STARLINK-5621,1 55434U 23014AV  24042.86858459 -.00001138  00000-0 -87621-4 0  9999,2 55434  69.9975 212.6881 0003772 283.9037  76.1702 14.98329022 57709,6950.196,96.107,574.683,569.439,0.0
55434.0,STARLINK-5621,PAYLOAD,2024-02-12 11:15:59,14.98315169,0.00035,69.9985,211.1756,277.4909,82.5852,-0.00011982,-1.522e-05,0.0,0 STARLINK-5621,1 55434U 23014AV  24043.46943966 -.00001522  00000-0 -11982-3 0  9997,2 55434  69.9985 211.1756 0003500 277.4909  82.5852 14.98315169 56859,6950.239,96.108,574.536,569.671,0.0
55434.0,STARLINK-5621,PAYLOAD,2024-02-12 14:28:15,14.98315195,0.0002856,69.9989,210.8376,268.864,91.2192,-8.4704e-05,-1.103e-05,0.0,0 STARLINK-5621,1 55434U 23014AV  24043.60296016 -.00001103  00000-0 -84704-4 0  9998,2 55434  69.9989 210.8376 0002856 268.8640  91.2192 14.98315195 57816,6950.239,96.108,574.089,570.119,0.0
55434.0,STARLINK-5621,PAYLOAD,2024-02-12 20:52:47,14.98319885,0.0003207,69.9998,210.1672,272.7592,87.32,-2.4603e-05,-3.86e-06,0.0,0 STARLINK-5621,1 55434U 23014AV  24043.86999731 -.00000386  00000-0 -24603-4 0  9994,2 55434  69.9998 210.1672 0003207 272.7592  87.3200 14.98319885 57859,6950.224,96.108,574.318,569.86,0.0
55434.0,STARLINK-5621,PAYLOAD,2024-02-13 11:17:59,14.983288,0.0003272,69.9994,208.6516,271.5367,88.5418,3.9847e-05,3.82e-06,0.0,0 STARLINK-5621,1 55434U 23014AV  24044.47083285  .00000382  00000-0  39847-4 0  9990,2 55434  69.9994 208.6516 0003272 271.5367  88.5418 14.98328800 57001,6950.197,96.107,574.336,569.787,0.0
55434.0,STARLINK-5621,PAYLOAD,2024-02-13 14:30:15,14.98333918,0.0003255,69.9996,208.3151,268.7463,91.3324,3.9049e-06,-4.6e-07,0.0,0 STARLINK-5621,1 55434U 23014AV  24044.60435120 -.00000046  00000-0  39049-5 0  9997,2 55434  69.9996 208.3151 0003255 268.7463  91.3324 14.98333918 57960,6950.181,96.107,574.308,569.783,0.0
55434.0,STARLINK-5621,PAYLOAD,2024-02-13 20:54:47,14.98335381,0.0003167,69.9998,207.6429,266.0936,93.9861,0.00012209,1.364e-05,0.0,0 STARLINK-5621,1 55434U 23014AV  24044.87138770  .00001364  00000-0  12209-3 0  9997,2 55434  69.9998 207.6429 0003167 266.0936  93.9861 14.98335381 58006,6950.176,96.107,574.242,569.84,0.0
55434.0,STARLINK-5621,PAYLOAD,2024-02-14 11:19:59,14.98342788,0.0003442,69.9996,206.1282,265.0665,95.0101,0.00028881,3.356e-05,0.0,0 STARLINK-5621,1 55434U 23014AV  24045.47221849  .00003356  00000-0  28881-3 0  9990,2 55434  69.9996 206.1282 0003442 265.0665  95.0101 14.98342788 57153,6950.153,96.106,574.411,569.626,0.0
55434.0,STARLINK-5621,PAYLOAD,2024-02-14 14:32:15,14.98345444,0.0003417,69.9998,205.7915,265.1526,94.9243,0.00032443,3.782e-05,0.0,0 STARLINK-5621,1 55434U 23014AV  24045.60573639  .00003782  00000-0  32443-3 0  9994,2 55434  69.9998 205.7915 0003417 265.1526  94.9243 14.98345444 58116,6950.145,96.106,574.385,569.635,0.0
55434.0,STARLINK-5621,PAYLOAD,2024-02-14 20:56:47,14.98353714,0.0003326,70.0,205.1184,264.5322,95.5458,0.00042032,4.929e-05,0.0,0 STARLINK-5621,1 55434U 23014AV  24045.87276853  .00004929  00000-0  42032-3 0  9990,2 55434  70.0000 205.1184 0003326 264.5322  95.5458 14.98353714 58159,6950.12,96.105,574.296,569.673,0.0
55434.0,STARLINK-5621,PAYLOAD,2024-02-15 03:21:20,14.98338968,0.000267,70.0011,204.4421,286.3789,73.7076,0.00020999,2.414e-05,0.0,0 STARLINK-5621,1 55434U 23014AV  24046.13982374  .00002414  00000-0  20999-3 0  9997,2 55434  70.0011 204.4421 0002670 286.3789  73.7076 14.98338968 57255,6950.165,96.106,573.886,570.174,0.0
55434.0,STARLINK-5621,PAYLOAD,2024-02-15 14:34:16,14.98336984,0.0002988,70.002,203.2677,268.9294,91.1522,-5.4739e-05,-7.46e-06,0.0,0 STARLINK-5621,1 55434U 23014AV  24046.60714038 -.00000746  00000-0 -54739-4 0  9997,2 55434  70.0020 203.2677 0002988 268.9294  91.1522 14.98336984 58262,6950.171,96.107,574.113,569.96,0.0
55434.0,STARLINK-5621,PAYLOAD,2024-02-15 19:22:41,14.98333815,0.0003101,70.0019,202.7627,268.0945,91.9858,-0.00011893,-1.512e-05,0.0,0 STARLINK-5621,1 55434U 23014AV  24046.80742079 -.00001512  00000-0 -11893-3 0  9990,2 55434  70.0019 202.7627 0003101 268.0945  91.9858 14.98333815 58294,6950.181,96.107,574.201,569.891,0.0
55434.0,STARLINK-5621,PAYLOAD,2024-02-16 03:23:21,14.98336713,0.0003111,70.002,201.9211,268.1756,91.9047,-0.0001244,-1.577e-05,0.0,0 STARLINK-5621,1 55434U 23014AV  24047.14121756 -.00001577  00000-0 -12440-3 0  9991,2 55434  70.0020 201.9211 0003111 268.1756  91.9047 14.98336713 57400,6950.172,96.107,574.199,569.875,0.0
55434.0,STARLINK-5621,PAYLOAD,2024-02-16 14:36:17,14.98342736,0.0003343,70.0008,200.7438,274.6472,85.4305,-5.5096e-05,-7.51e-06,0.0,0 STARLINK-5621,1 55434U 23014AV  24047.60853564 -.00000751  00000-0 -55096-4 0  9999,2 55434  70.0008 200.7438 0003343 274.6472  85.4305 14.98342736 58417,6950.154,96.106,574.342,569.695,0.0
55434.0,STARLINK-5621,PAYLOAD,2024-02-16 21:00:49,14.98345157,0.000318,70.001,200.0704,270.3715,89.708,-2.7322e-05,-4.19e-06,0.0,0 STARLINK-5621,1 55434U 23014AV  24047.87557122 -.00000419  00000-0 -27322-4 0  9991,2 55434  70.0010 200.0704 0003180 270.3715  89.7080 14.98345157 58452,6950.146,96.106,574.221,569.801,0.0
